[
    {
        "Altitude(m)": 703263.0801527671,
        "Argument of Periapsis(deg)": 0.0,
        "Eccentricity": 0.0,
        "Inclination(deg)": 45.0,
        "Latitude(deg)": 22.54585769680911,
        "Longitude(deg)": 125.64245852786668,
        "Mean Anomaly(deg)": 147.2727,
        "RAAN(deg)": 70.0,
        "Satellite Name": "Constellation 1 317",
        "Satellite Number": 317,
        "Semi-Major Axis(m)": 7083131.272910544,
        "Time(s)": 0
    },
    {
        "Altitude(m)": 703258.9722751281,
        "Argument of Periapsis(deg)": 5.994800624540561e-05,
        "Eccentricity": 0.0,
        "Inclination(deg)": 45.0,
        "Latitude(deg)": 22.50653073027583,
        "Longitude(deg)": 125.68854947210966,
        "Mean Anomaly(deg)": 147.3334011402499,
        "RAAN(deg)": 69.99994341083443,
        "Satellite Name": "Constellation 1 317",
        "Satellite Number": 317,
        "Semi-Major Axis(m)": 7083131.272910544,
        "Time(s)": 1
    },
    {
        "Altitude(m)": 703254.8762239531,
        "Argument of Periapsis(deg)": 0.00011989601249081122,
        "Eccentricity": 0.0,
        "Inclination(deg)": 45.0,
        "Latitude(deg)": 22.467187954646505,
        "Longitude(deg)": 125.73461203095586,
        "Mean Anomaly(deg)": 147.3941022804998,
        "RAAN(deg)": 69.99988682166885,
        "Satellite Name": "Constellation 1 317",
        "Satellite Number": 317,
        "Semi-Major Axis(m)": 7083131.272910544,
        "Time(s)": 2
    },
    {
        "Altitude(m)": 703250.7920337887,
        "Argument of Periapsis(deg)": 0.00017984401873621686,
        "Eccentricity": 0.0,
        "Inclination(deg)": 45.0,
        "Latitude(deg)": 22.42782940915699,
        "Longitude(deg)": 125.78064626413018,
        "Mean Anomaly(deg)": 147.45480342074967,
        "RAAN(deg)": 69.99983023250329,
        "Satellite Name": "Constellation 1 317",
        "Satellite Number": 317,
        "Semi-Major Axis(m)": 7083131.272910544,
        "Time(s)": 3
    },
    {
        "Altitude(m)": 703246.719739136,
        "Argument of Periapsis(deg)": 0.00023979202498162244,
        "Eccentricity": 0.0,
        "Inclination(deg)": 45.0,
        "Latitude(deg)": 22.388455132987218,
        "Longitude(deg)": 125.8266522313371,
        "Mean Anomaly(deg)": 147.5155045609996,
        "RAAN(deg)": 69.99977364333772,
        "Satellite Name": "Constellation 1 317",
        "Satellite Number": 317,
        "Semi-Major Axis(m)": 7083131.272910544,
        "Time(s)": 4
    },
    {
        "Altitude(m)": 703242.659374456,
        "Argument of Periapsis(deg)": 0.00029974003122702807,
        "Eccentricity": 0.0,
        "Inclination(deg)": 45.0,
        "Latitude(deg)": 22.349065165261482,
        "Longitude(deg)": 125.87262999226037,
        "Mean Anomaly(deg)": 147.57620570124948,
        "RAAN(deg)": 69.99971705417214,
        "Satellite Name": "Constellation 1 317",
        "Satellite Number": 317,
        "Semi-Major Axis(m)": 7083131.272910544,
        "Time(s)": 5
    },
    {
        "Altitude(m)": 703238.6109741711,
        "Argument of Periapsis(deg)": 0.00035968803747243373,
        "Eccentricity": 0.0,
        "Inclination(deg)": 45.0,
        "Latitude(deg)": 22.309659545048497,
        "Longitude(deg)": 125.9185796065627,
        "Mean Anomaly(deg)": 147.63690684149935,
        "RAAN(deg)": 69.99966046500657,
        "Satellite Name": "Constellation 1 317",
        "Satellite Number": 317,
        "Semi-Major Axis(m)": 7083131.272910544,
        "Time(s)": 6
    },
    {
        "Altitude(m)": 703234.5745726498,
        "Argument of Periapsis(deg)": 0.00041963604371783933,
        "Eccentricity": 0.0,
        "Inclination(deg)": 45.0,
        "Latitude(deg)": 22.270238311361503,
        "Longitude(deg)": 125.96450096578894,
        "Mean Anomaly(deg)": 147.6976079817493,
        "RAAN(deg)": 69.99960387584102,
        "Satellite Name": "Constellation 1 317",
        "Satellite Number": 317,
        "Semi-Major Axis(m)": 7083131.272910544,
        "Time(s)": 7
    },
    {
        "Altitude(m)": 703230.5502042288,
        "Argument of Periapsis(deg)": 0.0004795840499632449,
        "Eccentricity": 0.0,
        "Inclination(deg)": 45.0,
        "Latitude(deg)": 22.230801503158094,
        "Longitude(deg)": 126.01039446575376,
        "Mean Anomaly(deg)": 147.7583091219992,
        "RAAN(deg)": 69.99954728667544,
        "Satellite Name": "Constellation 1 317",
        "Satellite Number": 317,
        "Semi-Major Axis(m)": 7083131.272910544,
        "Time(s)": 8
    },
    {
        "Altitude(m)": 703226.5379031936,
        "Argument of Periapsis(deg)": 0.0005395320562086505,
        "Eccentricity": 0.0,
        "Inclination(deg)": 45.0,
        "Latitude(deg)": 22.19134915934097,
        "Longitude(deg)": 126.05625999795927,
        "Mean Anomaly(deg)": 147.81901026224907,
        "RAAN(deg)": 69.99949069750987,
        "Satellite Name": "Constellation 1 317",
        "Satellite Number": 317,
        "Semi-Major Axis(m)": 7083131.272910544,
        "Time(s)": 9
    },
    {
        "Altitude(m)": 703222.5377037902,
        "Argument of Periapsis(deg)": 0.0005994800624540561,
        "Eccentricity": 0.0,
        "Inclination(deg)": 45.0,
        "Latitude(deg)": 22.15188131875753,
        "Longitude(deg)": 126.10209762198318,
        "Mean Anomaly(deg)": 147.879711402499,
        "RAAN(deg)": 69.9994341083443,
        "Satellite Name": "Constellation 1 317",
        "Satellite Number": 317,
        "Semi-Major Axis(m)": 7083131.272910544,
        "Time(s)": 10
    },
    {
        "Altitude(m)": 703218.5496402183,
        "Argument of Periapsis(deg)": 0.0006594280686994618,
        "Eccentricity": 0.0,
        "Inclination(deg)": 45.0,
        "Latitude(deg)": 22.11239802020017,
        "Longitude(deg)": 126.14790739738143,
        "Mean Anomaly(deg)": 147.94041254274887,
        "RAAN(deg)": 69.99937751917874,
        "Satellite Name": "Constellation 1 317",
        "Satellite Number": 317,
        "Semi-Major Axis(m)": 7083131.272910544,
        "Time(s)": 11
    },
    {
        "Altitude(m)": 703214.573746639,
        "Argument of Periapsis(deg)": 0.0007193760749448675,
        "Eccentricity": 0.0,
        "Inclination(deg)": 45.0,
        "Latitude(deg)": 22.072899302406366,
        "Longitude(deg)": 126.1936893836882,
        "Mean Anomaly(deg)": 148.00111368299878,
        "RAAN(deg)": 69.99932093001316,
        "Satellite Name": "Constellation 1 317",
        "Satellite Number": 317,
        "Semi-Major Axis(m)": 7083131.272910544,
        "Time(s)": 12
    },
    {
        "Altitude(m)": 703210.6100571664,
        "Argument of Periapsis(deg)": 0.000779324081190273,
        "Eccentricity": 0.0,
        "Inclination(deg)": 45.0,
        "Latitude(deg)": 22.033385204058806,
        "Longitude(deg)": 126.23944364041549,
        "Mean Anomaly(deg)": 148.06181482324865,
        "RAAN(deg)": 69.99926434084759,
        "Satellite Name": "Constellation 1 317",
        "Satellite Number": 317,
        "Semi-Major Axis(m)": 7083131.272910544,
        "Time(s)": 13
    },
    {
        "Altitude(m)": 703206.6586058679,
        "Argument of Periapsis(deg)": 0.0008392720874356787,
        "Eccentricity": 0.0,
        "Inclination(deg)": 45.0,
        "Latitude(deg)": 21.993855763785426,
        "Longitude(deg)": 126.28517022705348,
        "Mean Anomaly(deg)": 148.12251596349856,
        "RAAN(deg)": 69.99920775168202,
        "Satellite Name": "Constellation 1 317",
        "Satellite Number": 317,
        "Semi-Major Axis(m)": 7083131.272910544,
        "Time(s)": 14
    },
    {
        "Altitude(m)": 703202.7194267673,
        "Argument of Periapsis(deg)": 0.0008992200936810842,
        "Eccentricity": 0.0,
        "Inclination(deg)": 45.0,
        "Latitude(deg)": 21.954311020159878,
        "Longitude(deg)": 126.33086903497255,
        "Mean Anomaly(deg)": 148.18321710374843,
        "RAAN(deg)": 69.99915116251645,
        "Satellite Name": "Constellation 1 317",
        "Satellite Number": 317,
        "Semi-Major Axis(m)": 7083131.272910544,
        "Time(s)": 15
    },
    {
        "Altitude(m)": 703198.7925538449,
        "Argument of Periapsis(deg)": 0.0009591680999264898,
        "Eccentricity": 0.0,
        "Inclination(deg)": 45.0,
        "Latitude(deg)": 21.914751011700684,
        "Longitude(deg)": 126.37654045981226,
        "Mean Anomaly(deg)": 148.2439182439984,
        "RAAN(deg)": 69.99909457335089,
        "Satellite Name": "Constellation 1 317",
        "Satellite Number": 317,
        "Semi-Major Axis(m)": 7083131.272910544,
        "Time(s)": 16
    },
    {
        "Altitude(m)": 703194.8780210437,
        "Argument of Periapsis(deg)": 0.0010191161061718953,
        "Eccentricity": 0.0,
        "Inclination(deg)": 45.0,
        "Latitude(deg)": 21.87517577687271,
        "Longitude(deg)": 126.42218439289807,
        "Mean Anomaly(deg)": 148.30461938424827,
        "RAAN(deg)": 69.9990379841853,
        "Satellite Name": "Constellation 1 317",
        "Satellite Number": 317,
        "Semi-Major Axis(m)": 7083131.272910544,
        "Time(s)": 17
    },
    {
        "Altitude(m)": 703190.9758622415,
        "Argument of Periapsis(deg)": 0.001079064112417301,
        "Eccentricity": 0.0,
        "Inclination(deg)": 45.0,
        "Latitude(deg)": 21.835585354086223,
        "Longitude(deg)": 126.46780089362994,
        "Mean Anomaly(deg)": 148.36532052449817,
        "RAAN(deg)": 69.99898139501974,
        "Satellite Name": "Constellation 1 317",
        "Satellite Number": 317,
        "Semi-Major Axis(m)": 7083131.272910544,
        "Time(s)": 18
    }
]